*******************************************************************************
JPL/HORIZONS               253 Mathilde (A885 VA)          2023-Sep-04 11:05:16
Rec #:     253 (+COV) Soln.date: 2023-Aug-22_22:40:29   # obs: 5542 (1885-2023)
 
IAU76/J2000 helio. ecliptic osc. elements (au, days, deg., period=Julian yrs):
 
  EPOCH=  2455295.5 ! 2010-Apr-09.00 (TDB)         Residual RMS= .23223
   EC= .2671842266358265   QR= 1.93944688459554    TP= 2455283.5408125557
   OM= 179.6145042749862   W=  157.4661898363629   IN= 6.742445251782693
   A= 2.646568148624894    MA= 2.737670174740337   ADIST= 3.353689412654247
   PER= 4.30559            N= .228917741           ANGMOM= .026967474
   DAN= 3.26286            DDN= 1.97118            L= 337.221101
   B= 2.5788085            MOID= .93100899         TP= 2010-Mar-28.0408125557
 
Asteroid physical parameters (km, seconds, rotational period in hours):
   GM= .00689              RAD= 26.4               ROTPER= 417.7
   H= 10.41                G= .150                 B-V= n.a.
                           ALBEDO= .0436           STYP= Cb

ASTEROID comments: 
1: soln ref.= JPL#235, OCC=0           radar( 1 delay, 0 Dop.)
2: source=ORB
*******************************************************************************


*******************************************************************************
Ephemeris / API_USER Mon Sep  4 11:05:16 2023 Pasadena, USA      / Horizons
*******************************************************************************
Target body name: 253 Mathilde (A885 VA)          {source: JPL#235}
Center body name: Solar System Barycenter (0)     {source: DE441}
Center-site name: BODY CENTER
*******************************************************************************
Start time      : A.D. 2023-Aug-12 00:00:00.0000 TDB
Stop  time      : A.D. 2023-Aug-13 00:00:00.0000 TDB
Step-size       : 2880 minutes
*******************************************************************************
Center geodetic : 0.0, 0.0, 0.0                   {E-lon(deg),Lat(deg),Alt(km)}
Center cylindric: 0.0, 0.0, 0.0                   {E-lon(deg),Dxy(km),Dz(km)}
Center radii    : (undefined)
Small perturbers: Yes                             {source: SB441-N16}
Output units    : KM-S
Calendar mode   : Mixed Julian/Gregorian
Output type     : GEOMETRIC cartesian states
Output format   : 2 (position and velocity)
Reference frame : Ecliptic of J2000.0
*******************************************************************************
Initial IAU76/J2000 heliocentric ecliptic osculating elements (au, days, deg.):
  EPOCH=  2455295.5 ! 2010-Apr-09.00 (TDB)         Residual RMS= .23223        
   EC= .2671842266358265   QR= 1.93944688459554    TP= 2455283.5408125557      
   OM= 179.6145042749862   W=  157.4661898363629   IN= 6.742445251782693       
  Equivalent ICRF heliocentric cartesian coordinates (au, au/d):
   X= 1.845882171921244E+00  Y=-5.742825602034968E-01  Z=-1.737825092666013E-01
  VX= 4.533638944746639E-03 VY= 1.258306823883877E-02 VZ= 3.770643673001869E-03
Asteroid physical parameters (km, seconds, rotational period in hours):        
   GM= .00689              RAD= 26.4               ROTPER= 417.7               
   H= 10.41                G= .150                 B-V= n.a.                   
                           ALBEDO= .0436           STYP= Cb                    
*******************************************************************************
JDTDB
   X     Y     Z
   VX    VY    VZ
*******************************************************************************
$$SOE
2460168.500000000 = A.D. 2023-Aug-12 00:00:00.0000 TDB 
 X = 2.552385869290932E+08 Y = 2.005821186623527E+08 Z =-2.395609163073638E+07
 VX=-9.815554260860990E+00 VY= 1.937500624547261E+01 VZ=-2.282239780493931E+00
$$EOE
*******************************************************************************
 
TIME

  Barycentric Dynamical Time ("TDB" or T_eph) output was requested. This
continuous coordinate time is equivalent to the relativistic proper time
of a clock at rest in a reference frame co-moving with the solar system
barycenter but outside the system's gravity well. It is the independent
variable in the solar system relativistic equations of motion.

  TDB runs at a uniform rate of one SI second per second and is independent
of irregularities in Earth's rotation.
 
CALENDAR SYSTEM

  Mixed calendar mode was active such that calendar dates after AD 1582-Oct-15
(if any) are in the modern Gregorian system. Dates prior to 1582-Oct-5 (if any)
are in the Julian calendar system, which is automatically extended for dates
prior to its adoption on 45-Jan-1 BC.  The Julian calendar is useful for
matching historical dates. The Gregorian calendar more accurately corresponds
to the Earth's orbital motion and seasons. A "Gregorian-only" calendar mode is
available if such physical events are the primary interest.

REFERENCE FRAME AND COORDINATES

  Ecliptic at the standard reference epoch

    Reference epoch: J2000.0
    X-Y plane: adopted Earth orbital plane at the reference epoch
               Note: IAU76 obliquity of 84381.448 arcseconds wrt ICRF X-Y plane
    X-axis   : ICRF
    Z-axis   : perpendicular to the X-Y plane in the directional (+ or -) sense
               of Earth's north pole at the reference epoch.

  Symbol meaning:

    JDTDB    Julian Day Number, Barycentric Dynamical Time
      X      X-component of position vector (km)
      Y      Y-component of position vector (km)
      Z      Z-component of position vector (km)
      VX     X-component of velocity vector (km/sec)                           
      VY     Y-component of velocity vector (km/sec)                           
      VZ     Z-component of velocity vector (km/sec)                           

ABERRATIONS AND CORRECTIONS

 Geometric state vectors have NO corrections or aberrations applied.

Computations by ...

    Solar System Dynamics Group, Horizons On-Line Ephemeris System
    4800 Oak Grove Drive, Jet Propulsion Laboratory
    Pasadena, CA  91109   USA

    General site: https://ssd.jpl.nasa.gov/
    Mailing list: https://ssd.jpl.nasa.gov/email_list.html
    System news : https://ssd.jpl.nasa.gov/horizons/news.html
    User Guide  : https://ssd.jpl.nasa.gov/horizons/manual.html
    Connect     : browser        https://ssd.jpl.nasa.gov/horizons/app.html#/x
                  API            https://ssd-api.jpl.nasa.gov/doc/horizons.html
                  command-line   telnet ssd.jpl.nasa.gov 6775
                  e-mail/batch   https://ssd.jpl.nasa.gov/ftp/ssd/hrzn_batch.txt
                  scripts        https://ssd.jpl.nasa.gov/ftp/ssd/SCRIPTS
    Author      : Jon.D.Giorgini@jpl.nasa.gov
*******************************************************************************
